      2.10          N: GNSS NAV DATA                        RINEX VERSION / TYPE
fic2rin                                 08/14/2020 00:17:21 PGM / RUN BY / DATE
                                                            END OF HEADER
 8 20  8 13 10  0  0.0-4.430999979377e-05-1.250555214938e-12 0.000000000000e+00
    5.200000000000e+01-3.500000000000e+00 4.631978654789e-09 1.518768346044e+00
    3.166496753693e-08 5.386303411797e-03 3.196299076080e-06 5.153706495285e+03
    3.816000000000e+05 7.823109626770e-08 6.248022467786e-01 7.078051567078e-08
    9.694189182462e-01 3.200000000000e+02-6.170072194559e-02-8.347847721365e-09
   -1.664355041354e-10 1.000000000000e+00 2.118000000000e+03 0.000000000000e+00
    2.400000000000e+00 0.000000000000e+00 5.122274160385e-09 5.200000000000e+01
    3.744000000000e+05 4.000000000000e+00
11 20  8 13 10  0  0.0-1.939986832440e-04 1.057287590811e-11 0.000000000000e+00
    4.900000000000e+01-7.012500000000e+01 5.825242644738e-09-1.302275940289e+00
   -3.490597009659e-06 1.603781257290e-02 4.932284355164e-06 5.153720067978e+03
    3.816000000000e+05-3.445893526077e-07 1.216026853177e+00 1.117587089539e-08
    9.130759743079e-01 2.591562500000e+02 2.024234972780e+00-9.023947312198e-09
   -1.400058318049e-10 1.000000000000e+00 2.118000000000e+03 0.000000000000e+00
    2.400000000000e+00 0.000000000000e+00-1.210719347000e-08 4.900000000000e+01
    3.744000000000e+05 4.000000000000e+00
10 20  8 13 10  0  0.0-4.264088347554e-04-1.023181539495e-11 0.000000000000e+00
    1.290000000000e+02-2.087500000000e+01 4.220532944995e-09-2.811926459224e+00
   -1.084059476852e-06 5.768336355686e-03 8.717179298401e-06 5.153666181564e+03
    3.816000000000e+05-4.470348358154e-08 2.732939332567e+00 1.303851604462e-08
    9.666505096281e-01 2.144375000000e+02-2.652304364746e+00-7.735322207219e-09
    3.443000557650e-10 1.000000000000e+00 2.118000000000e+03 0.000000000000e+00
    2.400000000000e+00 0.000000000000e+00 2.328306436539e-09 1.290000000000e+02
    3.744000000000e+05 4.000000000000e+00
 9 20  8 13 10  0  0.0-2.696239389479e-04-6.025402399246e-12 0.000000000000e+00
    1.200000000000e+02-3.000000000000e+00 4.785913638228e-09 1.774564625122e+00
   -1.378357410431e-07 1.626869081520e-03 6.932765245438e-06 5.153670286179e+03
    3.816000000000e+05 8.568167686462e-08-2.516853187941e+00-9.313225746155e-09
    9.529481722878e-01 2.410625000000e+02 1.772163565474e+00-8.099623096099e-09
    1.100045821324e-10 1.000000000000e+00 2.118000000000e+03 0.000000000000e+00
    2.400000000000e+00 0.000000000000e+00 1.396983861923e-09 1.200000000000e+02
    3.744000000000e+05 4.000000000000e+00
29 20  8 13 10  0  0.0-1.717354170978e-04-8.299139153678e-12 0.000000000000e+00
    5.000000000000e+00-9.656250000000e+00 4.120171621686e-09 1.549347125784e+00
   -6.444752216339e-07 1.624589087442e-03 3.557652235031e-06 5.153766759872e+03
    3.816000000000e+05-4.656612873077e-08 7.104828395364e-01-6.891787052155e-08
    9.854733367372e-01 3.192812500000e+02 2.159186862960e+00-8.018548290436e-09
   -1.585780339831e-10 1.000000000000e+00 2.118000000000e+03 0.000000000000e+00
    2.400000000000e+00 0.000000000000e+00-1.024454832077e-08 5.000000000000e+00
    3.744000000000e+05 4.000000000000e+00
30 20  8 13 10  0  0.0-2.813502214849e-04-7.389644451905e-12 0.000000000000e+00
    2.000000000000e+01 2.150000000000e+01 4.980921761099e-09-1.542875749665e+00
    8.828938007355e-07 4.788355086930e-03 8.968636393547e-06 5.153609086990e+03
    3.816000000000e+05 5.587935447693e-09-1.421388361456e+00-7.264316082001e-08
    9.377452130807e-01 1.910312500000e+02-2.813893272121e+00-8.177483482154e-09
   -1.528635102359e-10 1.000000000000e+00 2.118000000000e+03 0.000000000000e+00
    2.400000000000e+00 0.000000000000e+00 3.725290298462e-09 2.000000000000e+01
    3.744000000000e+05 4.000000000000e+00
32 20  8 13 10  0  0.0 3.319322131574e-04 5.456968210638e-12 0.000000000000e+00
    2.100000000000e+01-5.312500000000e+00 4.696981362413e-09 2.059725767686e+00
   -1.974403858185e-07 4.107636515982e-03 6.901100277901e-06 5.153738962173e+03
    3.816000000000e+05-1.005828380585e-07-2.508106925932e+00-4.470348358154e-08
    9.570322123931e-01 2.410000000000e+02-2.436527402003e+00-8.051763959717e-09
    4.535903224290e-11 1.000000000000e+00 2.118000000000e+03 0.000000000000e+00
    2.400000000000e+00 0.000000000000e+00 4.656612873077e-10 2.100000000000e+01
    3.744000000000e+05 4.000000000000e+00
24 20  8 13 10  0  0.0-1.709070056677e-05-5.684341886081e-13 0.000000000000e+00
    5.200000000000e+01 1.737500000000e+01 5.179144303577e-09-4.963329503739e-01
    1.059845089912e-06 9.891533409245e-03 8.178874850273e-06 5.153642459869e+03
    3.816000000000e+05 8.754432201385e-08-1.516379791419e+00 1.657754182816e-07
    9.357473424328e-01 2.107187500000e+02 6.711364113883e-01-8.416779164065e-09
   -1.946509651369e-10 1.000000000000e+00 2.118000000000e+03 0.000000000000e+00
    2.400000000000e+00 0.000000000000e+00 2.793967723846e-09 5.200000000000e+01
    3.744000000000e+05 4.000000000000e+00
22 20  8 13 10  0  0.0-7.645096629858e-04 3.296918293927e-12 0.000000000000e+00
    2.700000000000e+01-3.284375000000e+01 5.124499170245e-09 4.197047352326e-01
   -1.786276698112e-06 6.839103414677e-03 8.614733815193e-06 5.153762344360e+03
    3.816000000000e+05 1.676380634308e-08 2.646745267267e+00-1.024454832077e-07
    9.317988270584e-01 2.022500000000e+02-1.103510314160e+00-8.358562453391e-09
    2.178662178596e-10 1.000000000000e+00 2.118000000000e+03 0.000000000000e+00
    2.400000000000e+00 0.000000000000e+00-1.816079020500e-08 2.700000000000e+01
    3.744000000000e+05 4.000000000000e+00
21 20  8 13 10  0  0.0 3.512948751450e-05 4.433786671143e-12 0.000000000000e+00
    2.100000000000e+01-8.287500000000e+01 4.476257882680e-09 2.688714014108e+00
   -4.163011908531e-06 2.378651825711e-02 6.876885890961e-06 5.155079216003e+03
    3.816000000000e+05 3.762543201447e-07 1.619725237018e+00 2.235174179077e-08
    9.537984685518e-01 2.361875000000e+02-1.302570528102e+00-7.762823352752e-09
   -2.521533603424e-10 1.000000000000e+00 2.118000000000e+03 0.000000000000e+00
    2.400000000000e+00 0.000000000000e+00-1.024454832077e-08 2.100000000000e+01
    3.744000000000e+05 4.000000000000e+00
31 20  8 13 10  0  0.0-6.187986582518e-05-2.387423592154e-12 0.000000000000e+00
    1.070000000000e+02 3.046875000000e+01 4.614835083548e-09-1.819035868888e+00
    1.190230250359e-06 9.581181686372e-03 8.951872587204e-06 5.153632322311e+03
    3.816000000000e+05 3.911554813385e-08-1.427011564005e+00-1.676380634308e-07
    9.568555679608e-01 2.056250000000e+02 1.465600749183e-01-7.933544749698e-09
   -7.071723137082e-11 1.000000000000e+00 2.118000000000e+03 0.000000000000e+00
    3.400000000000e+00 0.000000000000e+00-1.303851604462e-08 1.070000000000e+02
    3.744000000000e+05 4.000000000000e+00
16 20  8 13 10  0  0.0-1.951218582690e-04-4.888534022029e-12 0.000000000000e+00
    6.200000000000e+01 8.593750000000e+01 4.260891768959e-09 2.208427276718e+00
    4.386529326439e-06 1.150556548964e-02 6.671994924545e-06 5.153557300568e+03
    3.816000000000e+05-2.440065145493e-07-3.167842863542e-01-1.620501279831e-07
    9.777009978110e-01 2.611875000000e+02 6.296872389210e-01-7.897471818544e-09
    1.314340461842e-10 1.000000000000e+00 2.118000000000e+03 0.000000000000e+00
    2.400000000000e+00 0.000000000000e+00-1.071020960808e-08 6.200000000000e+01
    3.744000000000e+05 4.000000000000e+00
13 20  8 13 10  0  0.0 3.540609031916e-05 3.410605131648e-12 0.000000000000e+00
    3.700000000000e+01-4.875000000000e+00 4.513402287036e-09 7.192390128147e-01
   -3.390014171600e-07 4.337029648013e-03 6.983056664467e-06 5.153657709122e+03
    3.816000000000e+05-4.470348358154e-08-2.372766361826e+00 0.000000000000e+00
    9.679186986818e-01 2.485625000000e+02 1.046325487199e+00-8.049621013311e-09
   -3.821587755898e-11 1.000000000000e+00 2.118000000000e+03 0.000000000000e+00
    2.400000000000e+00 0.000000000000e+00-1.117587089539e-08 3.700000000000e+01
    3.744000000000e+05 4.000000000000e+00
12 20  8 13 10  0  0.0 8.117174729705e-05-4.888534022029e-12 0.000000000000e+00
    7.800000000000e+01 7.625000000000e+01 4.221961575932e-09-2.197080746581e+00
    3.982335329056e-06 7.918021408841e-03 6.642192602158e-06 5.153651079178e+03
    3.816000000000e+05 1.173466444016e-07-3.356257773722e-01 4.842877388000e-08
    9.774939641815e-01 2.598750000000e+02 1.170211726050e+00-7.828540375844e-09
    1.496490906282e-10 1.000000000000e+00 2.118000000000e+03 0.000000000000e+00
    2.400000000000e+00 0.000000000000e+00-1.210719347000e-08 7.800000000000e+01
    3.744000000000e+05 4.000000000000e+00
25 20  8 13 10  0  0.0 3.485847264528e-05 4.774847184308e-12 0.000000000000e+00
    8.300000000000e+01 8.009375000000e+01 4.478043671350e-09-2.422674979509e+00
    4.090368747711e-06 9.078229311854e-03 6.623566150665e-06 5.153754669189e+03
    3.816000000000e+05 1.564621925354e-07-4.055001166732e-01-5.029141902924e-08
    9.647819624013e-01 2.536250000000e+02 9.388861604458e-01-7.934973380634e-09
    1.310768884500e-10 1.000000000000e+00 2.118000000000e+03 0.000000000000e+00
    2.400000000000e+00 0.000000000000e+00 5.587935447693e-09 8.300000000000e+01
    3.744000000000e+05 4.000000000000e+00
17 20  8 13 10  0  0.0 3.103804774582e-04 5.684341886081e-12 0.000000000000e+00
    5.700000000000e+01-3.875000000000e+00 4.232319150224e-09 1.287134034505e+00
   -5.010515451431e-07 1.331940165255e-02 3.898516297340e-06 5.153740358353e+03
    3.816000000000e+05-1.695007085800e-07 6.985903249654e-01-2.309679985046e-07
    9.837764234483e-01 3.201562500000e+02-1.639209701012e+00-8.178912113090e-09
   -9.000374901741e-11 1.000000000000e+00 2.118000000000e+03 0.000000000000e+00
    2.400000000000e+00 0.000000000000e+00-1.117587089539e-08 5.700000000000e+01
    3.744000000000e+05 4.000000000000e+00
